FLOCK 4G-21             
1 62651U 25009AU  26068.19487675  .00013648  00000+0  49619-3 0  9998
2 62651  97.4032 151.1274 0000465 329.5782  30.5431 15.28381075 63677
STARLINK-35761          
1 66961U 25288C   26068.24377298  .00040508  00000+0  14731-2 0  9991
2 66961  43.0012  25.5874 0001115 282.5954  77.4773 15.27587608 15228
